CTC2_L_00160016-03
1 66688U 25615WH  26037.47791667  .00000000  00000+0  00000-0 0  9997
2 66688  85.0000 180.0000 0000000   0.0000   0.0000 14.98994923    17
CTC2_L_00160016-04
1 66689U 24732KR  26037.47791667  .00000000  00000+0  00000-0 0  9997
2 66689  85.0000 180.0000 0000000   0.0000  90.0000 14.98994923    17
CTC2_L_00160017-01
1 66690U 25319EU  26037.47791667  .00000000  00000+0  00000-0 0  9991
2 66690  85.0000 192.0000 0000000   0.0000 192.0000 14.98994923    15
CTC2_L_00160017-02
1 66691U 26060HW  26037.47791667  .00000000  00000+0  00000-0 0  9996
2 66691  85.0000 192.0000 0000000   0.0000 282.0000 14.98994923    16
CTC2_L_00160017-03
1 66692U 26851ES  26037.47791667  .00000000  00000+0  00000-0 0  9995
2 66692  85.0000 192.0000 0000000   0.0000  12.0000 14.98994923    18
CTC2_L_00160017-04
1 66693U 24677XF  26037.47791667  .00000000  00000+0  00000-0 0  9990
2 66693  85.0000 192.0000 0000000   0.0000 102.0000 14.98994923    19
CTC2_L_00160018-01
1 66694U 22931CV  26037.47791667  .00000000  00000+0  00000-0 0  9992
2 66694  85.0000 204.0000 0000000   0.0000 204.0000 14.98994923    17
CTC2_L_00160018-02
1 66695U 23643SM  26037.47791667  .00000000  00000+0  00000-0 0  9994
2 66695  85.0000 204.0000 0000000   0.0000 294.0000 14.98994923    17
CTC2_L_00160018-03
1 66696U 24165NC  26037.47791667  .00000000  00000+0  00000-0 0  9995
2 66696  85.0000 204.0000 0000000   0.0000  24.0000 14.98994923    19
CTC2_L_00160018-04
1 66697U 25253WN  26037.47791667  .00000000  00000+0  00000-0 0  9995
2 66697  85.0000 204.0000 0000000   0.0000 114.0000 14.98994923    10
CTC2_L_00160019-01
1 66698U 22146AP  26037.47791667  .00000000  00000+0  00000-0 0  9994
2 66698  85.0000 216.0000 0000000   0.0000 216.0000 14.98994923    17
CTC2_L_00160019-02
1 66699U 23306FQ  26037.47791667  .00000000  00000+0  00000-0 0  9994
2 66699  85.0000 216.0000 0000000   0.0000 306.0000 14.98994923    18
CTC2_L_00160019-03
1 66700U 26598LV  26037.47791667  .00000000  00000+0  00000-0 0  9993
2 66700  85.0000 216.0000 0000000   0.0000  36.0000 14.98994923    11
CTC2_L_00160019-04
1 66701U 24514G   26037.47791667  .00000000  00000+0  00000-0 0  9990
2 66701  85.0000 216.0000 0000000   0.0000 126.0000 14.98994923    12
CTC2_L_00160020-01
1 66702U 25619NX  26037.47791667  .00000000  00000+0  00000-0 0  9998
2 66702  85.0000 228.0000 0000000   0.0000 228.0000 14.98994923    19
CTC2_L_00160020-02
1 66703U 25975LP  26037.47791667  .00000000  00000+0  00000-0 0  9994
2 66703  85.0000 228.0000 0000000   0.0000 318.0000 14.98994923    10
CTC2_L_00160020-03
1 66704U 25999DM  26037.47791667  .00000000  00000+0  00000-0 0  9991
2 66704  85.0000 228.0000 0000000   0.0000  48.0000 14.98994923    11
CTC2_L_00160020-04
1 66705U 22710DI  26037.47791667  .00000000  00000+0  00000-0 0  9990
2 66705  85.0000 228.0000 0000000   0.0000 138.0000 14.98994923    12
CTC2_L_00160021-01
1 66706U 22736JX  26037.47791667  .00000000  00000+0  00000-0 0  9999
2 66706  85.0000 240.0000 0000000   0.0000 240.0000 14.98994923    11
CTC2_L_00160021-02
1 66707U 23626Q   26037.47791667  .00000000  00000+0  00000-0 0  9999
2 66707  85.0000 240.0000 0000000   0.0000 330.0000 14.98994923    12
CTC2_L_00160021-03
1 66708U 24998YI  26037.47791667  .00000000  00000+0  00000-0 0  9993
2 66708  85.0000 240.0000 0000000   0.0000  60.0000 14.98994923    13
CTC2_L_00160021-04
1 66709U 26846ZH  26037.47791667  .00000000  00000+0  00000-0 0  9998
2 66709  85.0000 240.0000 0000000   0.0000 150.0000 14.98994923    14
CTC2_L_00160022-01
1 66710U 26447TR  26037.47791667  .00000000  00000+0  00000-0 0  9997
2 66710  85.0000 252.0000 0000000   0.0000 252.0000 14.98994923    12
CTC2_L_00160022-02
1 66711U 26935EE  26037.47791667  .00000000  00000+0  00000-0 0  9990
2 66711  85.0000 252.0000 0000000   0.0000 342.0000 14.98994923    13
CTC2_L_00160022-03
1 66712U 26318IZ  26037.47791667  .00000000  00000+0  00000-0 0  9996
2 66712  85.0000 252.0000 0000000   0.0000  72.0000 14.98994923    14
CTC2_L_00160022-04
1 66713U 25727OW  26037.47791667  .00000000  00000+0  00000-0 0  9990
2 66713  85.0000 252.0000 0000000   0.0000 162.0000 14.98994923    15
CTC2_L_00160023-01
1 66714U 25783EF  26037.47791667  .00000000  00000+0  00000-0 0  9993
2 66714  85.0000 264.0000 0000000   0.0000 264.0000 14.98994923    12
CTC2_L_00160023-02
1 66715U 25076WI  26037.47791667  .00000000  00000+0  00000-0 0  9999
2 66715  85.0000 264.0000 0000000   0.0000 354.0000 14.98994923    13
CTC2_L_00160023-03
1 66716U 26320CY  26037.47791667  .00000000  00000+0  00000-0 0  9993
2 66716  85.0000 264.0000 0000000   0.0000  84.0000 14.98994923    14
CTC2_L_00160023-04
1 66717U 26825CV  26037.47791667  .00000000  00000+0  00000-0 0  9994
2 66717  85.0000 264.0000 0000000   0.0000 174.0000 14.98994923    15
CTC2_L_00160024-01
1 66718U 26135HS  26037.47791667  .00000000  00000+0  00000-0 0  9999
2 66718  85.0000 276.0000 0000000   0.0000 276.0000 14.98994923    12
CTC2_L_00160024-02
1 66719U 25361JR  26037.47791667  .00000000  00000+0  00000-0 0  9990
2 66719  85.0000 276.0000 0000000   0.0000   6.0000 14.98994923    14
CTC2_L_00160024-03
1 66720U 25618HM  26037.47791667  .00000000  00000+0  00000-0 0  9997
2 66720  85.0000 276.0000 0000000   0.0000  96.0000 14.98994923    15
CTC2_L_00160024-04
1 66721U 26906UH  26037.47791667  .00000000  00000+0  00000-0 0  9999
2 66721  85.0000 276.0000 0000000   0.0000 186.0000 14.98994923    16
CTC2_L_00160025-01
1 66722U 26335JC  26037.47791667  .00000000  00000+0  00000-0 0  9996
2 66722  85.0000 288.0000 0000000   0.0000 288.0000 14.98994923    13
CTC2_L_00160025-02
1 66723U 22802PG  26037.47791667  .00000000  00000+0  00000-0 0  9992
2 66723  85.0000 288.0000 0000000   0.0000  18.0000 14.98994923    15
CTC2_L_00160025-03
1 66724U 26061F   26037.47791667  .00000000  00000+0  00000-0 0  9994
2 66724  85.0000 288.0000 0000000   0.0000 108.0000 14.98994923    16
CTC2_L_00160025-04
1 66725U 26053RM  26037.47791667  .00000000  00000+0  00000-0 0  9996
2 66725  85.0000 288.0000 0000000   0.0000 198.0000 14.98994923    16
CTC2_L_00160026-01
1 66726U 24609JM  26037.47791667  .00000000  00000+0  00000-0 0  9992
2 66726  85.0000 300.0000 0000000   0.0000 300.0000 14.98994923    17
CTC2_L_00160026-02
1 66727U 23582VM  26037.47791667  .00000000  00000+0  00000-0 0  9992
2 66727  85.0000 300.0000 0000000   0.0000  30.0000 14.98994923    18
CTC2_L_00160026-03
1 66728U 22656OJ  26037.47791667  .00000000  00000+0  00000-0 0  9994
2 66728  85.0000 300.0000 0000000   0.0000 120.0000 14.98994923    19
CTC2_L_00160026-04
1 66729U 26005KK  26037.47791667  .00000000  00000+0  00000-0 0  9997
2 66729  85.0000 300.0000 0000000   0.0000 210.0000 14.98994923    10
CTC2_L_00160027-01
1 66730U 25332HE  26037.47791667  .00000000  00000+0  00000-0 0  9991
2 66730  85.0000 312.0000 0000000   0.0000 312.0000 14.98994923    18
CTC2_L_00160027-02
1 66731U 25897AD  26037.47791667  .00000000  00000+0  00000-0 0  9998
2 66731  85.0000 312.0000 0000000   0.0000  42.0000 14.98994923    19
CTC2_L_00160027-03
1 66732U 23203ND  26037.47791667  .00000000  00000+0  00000-0 0  9998
2 66732  85.0000 312.0000 0000000   0.0000 132.0000 14.98994923    10
CTC2_L_00160027-04
1 66733U 26130CZ  26037.47791667  .00000000  00000+0  00000-0 0  9991
2 66733  85.0000 312.0000 0000000   0.0000 222.0000 14.98994923    11
CTC2_L_00160028-01
1 66734U 23530ZA  26037.47791667  .00000000  00000+0  00000-0 0  9993
2 66734  85.0000 324.0000 0000000   0.0000 324.0000 14.98994923    18
CTC2_L_00160028-02
1 66735U 26694AY  26037.47791667  .00000000  00000+0  00000-0 0  9998
2 66735  85.0000 324.0000 0000000   0.0000  54.0000 14.98994923    19
CTC2_L_00160028-03
1 66736U 25957HB  26037.47791667  .00000000  00000+0  00000-0 0  9990
2 66736  85.0000 324.0000 0000000   0.0000 144.0000 14.98994923    10
CTC2_L_00160028-04
1 66737U 23221TV  26037.47791667  .00000000  00000+0  00000-0 0  9993
2 66737  85.0000 324.0000 0000000   0.0000 234.0000 14.98994923    11
CTC2_L_00160029-01
1 66738U 25734LV  26037.47791667  .00000000  00000+0  00000-0 0  9995
2 66738  85.0000 336.0000 0000000   0.0000 336.0000 14.98994923    18
CTC2_L_00160029-02
1 66739U 24250SE  26037.47791667  .00000000  00000+0  00000-0 0  9998
2 66739  85.0000 336.0000 0000000   0.0000  66.0000 14.98994923    19
CTC2_L_00160029-03
1 66740U 22387TG  26037.47791667  .00000000  00000+0  00000-0 0  9999
2 66740  85.0000 336.0000 0000000   0.0000 156.0000 14.98994923    11
CTC2_L_00160029-04
1 66741U 24685AL  26037.47791667  .00000000  00000+0  00000-0 0  9993
2 66741  85.0000 336.0000 0000000   0.0000 246.0000 14.98994923    12
CTC2_L_00160030-01
1 66742U 23955JE  26037.47791667  .00000000  00000+0  00000-0 0  9993
2 66742  85.0000 348.0000 0000000   0.0000 348.0000 14.98994923    19
CTC2_L_00160030-02
1 66743U 25212HU  26037.47791667  .00000000  00000+0  00000-0 0  9992
2 66743  85.0000 348.0000 0000000   0.0000  78.0000 14.98994923    10
CTC2_L_00160030-03
1 66744U 25415GS  26037.47791667  .00000000  00000+0  00000-0 0  9998
2 66744  85.0000 348.0000 0000000   0.0000 168.0000 14.98994923    11
CTC2_L_00160030-04
1 66745U 26342PO  26037.47791667  .00000000  00000+0  00000-0 0  9999
2 66745  85.0000 348.0000 0000000   0.0000 258.0000 14.98994923    12
